STARLINK-37460          
1 68803U 26089B   26117.60283279 -.00929189  29107-3 -16850-2 0  9998
2 68803  97.2860 322.7546 0001058 108.7136 251.4258 16.01526591   720
