{
  "norad_id": 68803,
  "name": "STARLINK-37460",
  "history": [
    {
      "epoch": "2026-04-27T14:28:04.753056Z",
      "apogee_km": 270.8939011753873,
      "perigee_km": 269.4871150746667,
      "latitude_deg": -1.1076457763555001e-05,
      "longitude_deg": -109.85548410977559,
      "height_km": 273.6182080406345,
      "semi_major_axis_km": 6648.327508125027,
      "eccentricity": 0.0001058,
      "inclination_deg": 97.286,
      "raan_deg": 322.7546,
      "arg_perigee_deg": 108.7136,
      "mean_anomaly_deg": 251.4258,
      "mean_motion_rev_day": 16.01526591
    }
  ]
}